start=new Date('2022-06-25T00:00:00.000Z').valueOf();
sats=[{"REV_AT_EPOCH":"7352","INCLINATION":"53.0549","RA_OF_ASC_NODE":"179.7060","PERIOD":"95.592","MEAN_ELEMENT_THEORY":"SGP4","TLE_LINE1":"1 47772U 21017BC  22175.74749914  .00001108  00000-0  93288-4 0  9994","LAUNCH_DATE":"2021-03-04","TIME_SYSTEM":"UTC","MEAN_MOTION_DOT":"0.00001108","RCS_SIZE":"LARGE","EPOCH":"2022-06-24T17:56:23.925696","PERIAPSIS":"546.006","ARG_OF_PERICENTER":"60.3247","FILE":"3501798","OBJECT_TYPE":"PAYLOAD","ECCENTRICITY":"0.00017550","MEAN_MOTION":"15.06397515","SITE":"AFETR","OBJECT_NAME":"STARLINK-2195","EPHEMERIS_TYPE":"0","DECAY_DATE":null,"APOAPSIS":"548.437","COUNTRY_CODE":"US","BSTAR":"0.00009328800000","ELEMENT_SET_NO":"999","OBJECT_ID":"2021-017BC","CLASSIFICATION_TYPE":"U","NORAD_CAT_ID":"47772","MEAN_ANOMALY":"299.7916","CENTER_NAME":"EARTH","SEMIMAJOR_AXIS":"6925.356","TLE_LINE2":"2 47772  53.0549 179.7060 0001755  60.3247 299.7916 15.06397515 73527","GP_ID":"206787761","MEAN_MOTION_DDOT":"0.0000000000000","REF_FRAME":"TEME"},{"OBJECT_TYPE":"PAYLOAD","ECCENTRICITY":"0.00018950","MEAN_MOTION":"15.06393060","SITE":"AFETR","OBJECT_NAME":"STARLINK-2196","EPHEMERIS_TYPE":"0","DECAY_DATE":null,"REV_AT_EPOCH":"7351","INCLINATION":"53.0535","MEAN_ELEMENT_THEORY":"SGP4","PERIOD":"95.593","RA_OF_ASC_NODE":"179.7242","TLE_LINE1":"1 47773U 21017BD  22175.74380701 -.00000947  00000-0 -44689-4 0  9993","LAUNCH_DATE":"2021-03-04","TIME_SYSTEM":"UTC","MEAN_MOTION_DOT":"-0.00000947","RCS_SIZE":"LARGE","EPOCH":"2022-06-24T17:51:04.925664","PERIAPSIS":"545.922","ARG_OF_PERICENTER":"57.1538","FILE":"3501798","CENTER_NAME":"EARTH","SEMIMAJOR_AXIS":"6925.370","TLE_LINE2":"2 47773  53.0535 179.7242 0001895  57.1538 302.9633 15.06393060 73510","GP_ID":"206786510","MEAN_MOTION_DDOT":"0.0000000000000","REF_FRAME":"TEME","APOAPSIS":"548.547","COUNTRY_CODE":"US","BSTAR":"-0.00004468900000","ELEMENT_SET_NO":"999","OBJECT_ID":"2021-017BD","CLASSIFICATION_TYPE":"U","NORAD_CAT_ID":"47773","MEAN_ANOMALY":"302.9633"},{"TIME_SYSTEM":"UTC","LAUNCH_DATE":"2021-03-04","MEAN_MOTION_DOT":"0.00000246","REV_AT_EPOCH":"7352","INCLINATION":"53.0553","RA_OF_ASC_NODE":"179.7466","PERIOD":"95.593","MEAN_ELEMENT_THEORY":"SGP4","TLE_LINE1":"1 47774U 21017BE  22175.74013259  .00000246  00000-0  35449-4 0  9999","PERIAPSIS":"545.860","ARG_OF_PERICENTER":"49.5937","FILE":"3501798","RCS_SIZE":"LARGE","EPOCH":"2022-06-24T17:45:47.455776","ECCENTRICITY":"0.00020180","MEAN_MOTION":"15.06385556","OBJECT_TYPE":"PAYLOAD","OBJECT_NAME":"STARLINK-2197","EPHEMERIS_TYPE":"0","DECAY_DATE":null,"SITE":"AFETR","CLASSIFICATION_TYPE":"U","APOAPSIS":"548.655","COUNTRY_CODE":"US","BSTAR":"0.00003544900000","ELEMENT_SET_NO":"999","OBJECT_ID":"2021-017BE","MEAN_ANOMALY":"310.5228","NORAD_CAT_ID":"47774","CENTER_NAME":"EARTH","REF_FRAME":"TEME","SEMIMAJOR_AXIS":"6925.393","TLE_LINE2":"2 47774  53.0553 179.7466 0002018  49.5937 310.5228 15.06385556 73522","GP_ID":"206786760","MEAN_MOTION_DDOT":"0.0000000000000"},{"SITE":"AFETR","OBJECT_NAME":"STARLINK-2198","DECAY_DATE":null,"EPHEMERIS_TYPE":"0","OBJECT_TYPE":"PAYLOAD","ECCENTRICITY":"0.00016770","MEAN_MOTION":"15.06388101","RCS_SIZE":"LARGE","EPOCH":"2022-06-24T18:01:42.131712","ARG_OF_PERICENTER":"63.0037","PERIAPSIS":"546.089","FILE":"3501798","INCLINATION":"53.0537","REV_AT_EPOCH":"7357","TLE_LINE1":"1 47775U 21017BF  22175.75118208  .00000681  00000-0  64625-4 0  9992","PERIOD":"95.593","MEAN_ELEMENT_THEORY":"SGP4","RA_OF_ASC_NODE":"179.6833","TIME_SYSTEM":"UTC","LAUNCH_DATE":"2021-03-04","MEAN_MOTION_DOT":"0.00000681","TLE_LINE2":"2 47775  53.0537 179.6833 0001677  63.0037 297.1123 15.06388101 73572","SEMIMAJOR_AXIS":"6925.385","MEAN_MOTION_DDOT":"0.0000000000000","GP_ID":"206788011","REF_FRAME":"TEME","CENTER_NAME":"EARTH","NORAD_CAT_ID":"47775","MEAN_ANOMALY":"297.1123","COUNTRY_CODE":"US","APOAPSIS":"548.411","OBJECT_ID":"2021-017BF","BSTAR":"0.00006462500000","ELEMENT_SET_NO":"999","CLASSIFICATION_TYPE":"U"},{"CENTER_NAME":"EARTH","MEAN_MOTION_DDOT":"0.0000000000000","GP_ID":"206788262","TLE_LINE2":"2 47776  53.0544 169.8644 0001941  56.2175 303.8998 15.06399938 73679","SEMIMAJOR_AXIS":"6925.349","REF_FRAME":"TEME","OBJECT_ID":"2021-017BG","ELEMENT_SET_NO":"999","BSTAR":"0.00009779000000","COUNTRY_CODE":"US","APOAPSIS":"548.558","CLASSIFICATION_TYPE":"U","NORAD_CAT_ID":"47776","MEAN_ANOMALY":"303.8998","OBJECT_TYPE":"PAYLOAD","MEAN_MOTION":"15.06399938","ECCENTRICITY":"0.00019410","SITE":"AFETR","DECAY_DATE":null,"EPHEMERIS_TYPE":"0","OBJECT_NAME":"STARLINK-2209","TLE_LINE1":"1 47776U 21017BG  22175.71155000  .00001175  00000-0  97790-4 0  9998","PERIOD":"95.592","MEAN_ELEMENT_THEORY":"SGP4","RA_OF_ASC_NODE":"169.8644","INCLINATION":"53.0544","REV_AT_EPOCH":"7367","MEAN_MOTION_DOT":"0.00001175","TIME_SYSTEM":"UTC","LAUNCH_DATE":"2021-03-04","EPOCH":"2022-06-24T17:04:37.920000","RCS_SIZE":"LARGE","FILE":"3501798","ARG_OF_PERICENTER":"56.2175","PERIAPSIS":"545.870"},{"CENTER_NAME":"EARTH","GP_ID":"206787011","MEAN_MOTION_DDOT":"0.0000000000000","SEMIMAJOR_AXIS":"6925.389","TLE_LINE2":"2 47777  53.0551 169.8599 0002019  49.2402 310.8762 15.06386849 73673","REF_FRAME":"TEME","BSTAR":"0.00004881000000","ELEMENT_SET_NO":"999","OBJECT_ID":"2021-017BH","APOAPSIS":"548.652","COUNTRY_CODE":"US","CLASSIFICATION_TYPE":"U","NORAD_CAT_ID":"47777","MEAN_ANOMALY":"310.8762","OBJECT_TYPE":"PAYLOAD","MEAN_MOTION":"15.06386849","ECCENTRICITY":"0.00020190","SITE":"AFETR","EPHEMERIS_TYPE":"0","DECAY_DATE":null,"OBJECT_NAME":"STARLINK-2210","PERIOD":"95.593","RA_OF_ASC_NODE":"169.8599","MEAN_ELEMENT_THEORY":"SGP4","TLE_LINE1":"1 47777U 21017BH  22175.71524803  .00000445  00000-0  48810-4 0  9998","REV_AT_EPOCH":"7367","INCLINATION":"53.0551","MEAN_MOTION_DOT":"0.00000445","TIME_SYSTEM":"UTC","LAUNCH_DATE":"2021-03-04","EPOCH":"2022-06-24T17:09:57.429792","RCS_SIZE":"LARGE","FILE":"3501798","PERIAPSIS":"545.856","ARG_OF_PERICENTER":"49.2402"},{"CLASSIFICATION_TYPE":"U","BSTAR":"-0.00004181700000","ELEMENT_SET_NO":"999","OBJECT_ID":"2021-017BJ","APOAPSIS":"548.459","COUNTRY_CODE":"US","MEAN_ANOMALY":"297.7846","NORAD_CAT_ID":"47778","CENTER_NAME":"EARTH","REF_FRAME":"TEME","GP_ID":"206787261","MEAN_MOTION_DDOT":"0.0000000000000","SEMIMAJOR_AXIS":"6925.370","TLE_LINE2":"2 47778  53.0537 169.9906 0001767  62.3322 297.7846 15.06392940 73661","MEAN_MOTION_DOT":"-0.00000904","TIME_SYSTEM":"UTC","LAUNCH_DATE":"2021-03-04","MEAN_ELEMENT_THEORY":"SGP4","PERIOD":"95.593","RA_OF_ASC_NODE":"169.9906","TLE_LINE1":"1 47778U 21017BJ  22175.68206456 -.00000904  00000-0 -41817-4 0  9998","REV_AT_EPOCH":"7366","INCLINATION":"53.0537","FILE":"3501798","PERIAPSIS":"546.011","ARG_OF_PERICENTER":"62.3322","EPOCH":"2022-06-24T16:22:10.377984","RCS_SIZE":"LARGE","MEAN_MOTION":"15.06392940","ECCENTRICITY":"0.00017670","OBJECT_TYPE":"PAYLOAD","EPHEMERIS_TYPE":"0","DECAY_DATE":null,"OBJECT_NAME":"STARLINK-2211","SITE":"AFETR"},{"PERIAPSIS":"527.825","ARG_OF_PERICENTER":"67.5466","FILE":"3501798","RCS_SIZE":"LARGE","EPOCH":"2022-06-24T16:14:15.296352","TIME_SYSTEM":"UTC","LAUNCH_DATE":"2021-03-04","MEAN_MOTION_DOT":"-0.00000112","REV_AT_EPOCH":"7383","INCLINATION":"53.0555","RA_OF_ASC_NODE":"158.6658","PERIOD":"95.210","MEAN_ELEMENT_THEORY":"SGP4","TLE_LINE1":"1 47779U 21017BK  22175.67656593 -.00000112  00000-0  10644-4 0  9993","OBJECT_NAME":"STARLINK-2212","EPHEMERIS_TYPE":"0","DECAY_DATE":null,"SITE":"AFETR","ECCENTRICITY":"0.00013590","MEAN_MOTION":"15.12439991","OBJECT_TYPE":"PAYLOAD","MEAN_ANOMALY":"292.5669","NORAD_CAT_ID":"47779","CLASSIFICATION_TYPE":"U","APOAPSIS":"529.702","COUNTRY_CODE":"US","ELEMENT_SET_NO":"999","BSTAR":"0.00001064400000","OBJECT_ID":"2021-017BK","REF_FRAME":"TEME","SEMIMAJOR_AXIS":"6906.898","TLE_LINE2":"2 47779  53.0555 158.6658 0001359  67.5466 292.5669 15.12439991 73834","GP_ID":"206787512","MEAN_MOTION_DDOT":"0.0000000000000","CENTER_NAME":"EARTH"},{"REF_FRAME":"TEME","GP_ID":"206787762","MEAN_MOTION_DDOT":"0.0000000000000","SEMIMAJOR_AXIS":"6925.364","TLE_LINE2":"2 47780  53.0528 169.8713 0002262  51.9201 308.1992 15.06395042 73700","CENTER_NAME":"EARTH","MEAN_ANOMALY":"308.1992","NORAD_CAT_ID":"47780","CLASSIFICATION_TYPE":"U","BSTAR":"0.00007939400000","ELEMENT_SET_NO":"999","OBJECT_ID":"2021-017BL","APOAPSIS":"548.795","COUNTRY_CODE":"US","EPHEMERIS_TYPE":"0","DECAY_DATE":null,"OBJECT_NAME":"STARLINK-2213","SITE":"AFETR","MEAN_MOTION":"15.06395042","ECCENTRICITY":"0.00022620","OBJECT_TYPE":"PAYLOAD","FILE":"3501798","PERIAPSIS":"545.662","ARG_OF_PERICENTER":"51.9201","EPOCH":"2022-06-24T16:59:19.654368","RCS_SIZE":"LARGE","MEAN_MOTION_DOT":"0.00000901","TIME_SYSTEM":"UTC","LAUNCH_DATE":"2021-03-04","PERIOD":"95.592","RA_OF_ASC_NODE":"169.8713","MEAN_ELEMENT_THEORY":"SGP4","TLE_LINE1":"1 47780U 21017BL  22175.70786637  .00000901  00000-0  79394-4 0  9994","REV_AT_EPOCH":"7370","INCLINATION":"53.0528"},{"REF_FRAME":"TEME","GP_ID":"206786511","MEAN_MOTION_DDOT":"0.0000000000000","SEMIMAJOR_AXIS":"6925.347","TLE_LINE2":"2 47781  53.0524 169.1285 0001813  65.2106 294.9072 15.06400351 73685","CENTER_NAME":"EARTH","MEAN_ANOMALY":"294.9072","NORAD_CAT_ID":"47781","CLASSIFICATION_TYPE":"U","ELEMENT_SET_NO":"999","BSTAR":"-0.00004096100000","OBJECT_ID":"2021-017BM","APOAPSIS":"548.468","COUNTRY_CODE":"US","EPHEMERIS_TYPE":"0","DECAY_DATE":null,"OBJECT_NAME":"STARLINK-2223","SITE":"AFETR","MEAN_MOTION":"15.06400351","ECCENTRICITY":"0.00018130","OBJECT_TYPE":"PAYLOAD","FILE":"3501798","PERIAPSIS":"545.957","ARG_OF_PERICENTER":"65.2106","EPOCH":"2022-06-24T20:58:10.545024","RCS_SIZE":"LARGE","MEAN_MOTION_DOT":"-0.00000892","LAUNCH_DATE":"2021-03-04","TIME_SYSTEM":"UTC","MEAN_ELEMENT_THEORY":"SGP4","PERIOD":"95.592","RA_OF_ASC_NODE":"169.1285","TLE_LINE1":"1 47781U 21017BM  22175.87373316 -.00000892  00000-0 -40961-4 0  9998","REV_AT_EPOCH":"7368","INCLINATION":"53.0524"}];
